[{"OBJECT_NAME":"STARLINK-35150","OBJECT_ID":"2025-210P","EPOCH":"2026-03-09T22:13:57.615456","MEAN_MOTION":15.30218997,"ECCENTRICITY":0.00011319,"INCLINATION":53.1599,"RA_OF_ASC_NODE":306.2381,"ARG_OF_PERICENTER":113.8482,"MEAN_ANOMALY":246.2638,"EPHEMERIS_TYPE":0,"CLASSIFICATION_TYPE":"U","NORAD_CAT_ID":65635,"ELEMENT_SET_NO":999,"REV_AT_EPOCH":2776,"BSTAR":0.0010334987,"MEAN_MOTION_DOT":0.00030393,"MEAN_MOTION_DDOT":0},{"OBJECT_NAME":"CZ-6A DEB","OBJECT_ID":"2024-140ADS","EPOCH":"2026-03-09T14:05:09.302208","MEAN_MOTION":15.17885306,"ECCENTRICITY":0.0073653,"INCLINATION":89.0442,"RA_OF_ASC_NODE":281.8925,"ARG_OF_PERICENTER":121.24,"MEAN_ANOMALY":239.6089,"EPHEMERIS_TYPE":0,"CLASSIFICATION_TYPE":"U","NORAD_CAT_ID":64628,"ELEMENT_SET_NO":999,"REV_AT_EPOCH":8034,"BSTAR":0.0029018,"MEAN_MOTION_DOT":0.00063537,"MEAN_MOTION_DDOT":0}]
